{
  "type": "FeatureCollection",
  "features": [
    {
      "type": "Feature",
      "properties": {
        "norad_id": 34343,
        "name": "COSMOS 2251 DEB",
        "group": "cosmos-2251-debris",
        "lat": 30.934656388181015,
        "lon": -122.64379819309892,
        "alt_km": 677.1377438618056,
        "timestamp": "2025-12-24T05:51:20.003522+00:00",
        "meta_object_name": "COSMOS 2251 DEB",
        "meta_object_id": "1993-036PR",
        "meta_epoch": "2025-12-23T11:16:54.821280",
        "meta_mean_motion": 14.69591498,
        "meta_eccentricity": 0.00243232,
        "meta_inclination": 74.0202,
        "meta_ra_of_asc_node": 68.7452,
        "meta_arg_of_pericenter": 340.051,
        "meta_mean_anomaly": 34.8017,
        "meta_ephemeris_type": 0,
        "meta_classification_type": "U",
        "meta_norad_cat_id": 34343,
        "meta_element_set_no": 999,
        "meta_rev_at_epoch": 88888,
        "meta_bstar": 0.0012901663,
        "meta_mean_motion_dot": 7.677e-05,
        "meta_mean_motion_ddot": 0,
        "tle_line1": "1 34343U 93036PR  25357.47007895  .00007677  00000+0  12902-2 0  9992",
        "tle_line2": "2 34343  74.0202  68.7452 0024323 340.0510  34.8017 14.69591498888882"
      },
      "geometry": {
        "type": "Point",
        "coordinates": [
          -122.64379819309892,
          30.934656388181015
        ]
      }
    },
    {
      "type": "Feature",
      "properties": {
        "norad_id": 34344,
        "name": "COSMOS 2251 DEB",
        "group": "cosmos-2251-debris",
        "lat": -29.810127900302437,
        "lon": -80.71244629013256,
        "alt_km": 785.9119547267819,
        "timestamp": "2025-12-24T05:51:20.003532+00:00",
        "meta_object_name": "COSMOS 2251 DEB",
        "meta_object_id": "1993-036PS",
        "meta_epoch": "2025-12-20T16:41:07.998144",
        "meta_mean_motion": 14.16466858,
        "meta_eccentricity": 0.01566321,
        "meta_inclination": 73.9786,
        "meta_ra_of_asc_node": 96.1449,
        "meta_arg_of_pericenter": 278.7098,
        "meta_mean_anomaly": 204.8003,
        "meta_ephemeris_type": 0,
        "meta_classification_type": "U",
        "meta_norad_cat_id": 34344,
        "meta_element_set_no": 999,
        "meta_rev_at_epoch": 86209,
        "meta_bstar": 0.0013151537,
        "meta_mean_motion_dot": 2.924e-05,
        "meta_mean_motion_ddot": 0,
        "tle_line1": "1 34344U 93036PS  25354.69523146  .00002924  00000+0  13152-2 0  9994",
        "tle_line2": "2 34344  73.9786  96.1449 0156632 278.7098 204.8003 14.16466858862098"
      },
      "geometry": {
        "type": "Point",
        "coordinates": [
          -80.71244629013256,
          -29.810127900302437
        ]
      }
    },
    {
      "type": "Feature",
      "properties": {
        "norad_id": 34346,
        "name": "COSMOS 2251 DEB",
        "group": "cosmos-2251-debris",
        "lat": -9.6157526263177,
        "lon": -70.50336296229868,
        "alt_km": 967.2806328045372,
        "timestamp": "2025-12-24T05:51:20.003543+00:00",
        "meta_object_name": "COSMOS 2251 DEB",
        "meta_object_id": "1993-036PU",
        "meta_epoch": "2025-12-23T19:45:29.225088",
        "meta_mean_motion": 13.9972768,
        "meta_eccentricity": 0.02061943,
        "meta_inclination": 73.9947,
        "meta_ra_of_asc_node": 293.0137,
        "meta_arg_of_pericenter": 109.2819,
        "meta_mean_anomaly": 283.6893,
        "meta_ephemeris_type": 0,
        "meta_classification_type": "U",
        "meta_norad_cat_id": 34346,
        "meta_element_set_no": 999,
        "meta_rev_at_epoch": 85565,
        "meta_bstar": 0.00095160643,
        "meta_mean_motion_dot": 1.651e-05,
        "meta_mean_motion_ddot": 0,
        "tle_line1": "1 34346U 93036PU  25357.82325492  .00001651  00000+0  95161-3 0  9995",
        "tle_line2": "2 34346  73.9947 293.0137 0206194 109.2819 283.6893 13.99727680855658"
      },
      "geometry": {
        "type": "Point",
        "coordinates": [
          -70.50336296229868,
          -9.6157526263177
        ]
      }
    },
    {
      "type": "Feature",
      "properties": {
        "norad_id": 34383,
        "name": "COSMOS 2251 DEB",
        "group": "cosmos-2251-debris",
        "lat": 49.487164336350226,
        "lon": -66.45192668502418,
        "alt_km": 529.3119661359497,
        "timestamp": "2025-12-24T05:51:20.003553+00:00",
        "meta_object_name": "COSMOS 2251 DEB",
        "meta_object_id": "1993-036PY",
        "meta_epoch": "2025-12-23T12:55:52.239648",
        "meta_mean_motion": 15.09948656,
        "meta_eccentricity": 0.00029067,
        "meta_inclination": 74.0207,
        "meta_ra_of_asc_node": 275.41,
        "meta_arg_of_pericenter": 43.9576,
        "meta_mean_anomaly": 136.6778,
        "meta_ephemeris_type": 0,
        "meta_classification_type": "U",
        "meta_norad_cat_id": 34383,
        "meta_element_set_no": 999,
        "meta_rev_at_epoch": 89276,
        "meta_bstar": 0.003320484,
        "meta_mean_motion_dot": 0.0005427,
        "meta_mean_motion_ddot": 0,
        "tle_line1": "1 34383U 93036PY  25357.53879907  .00054270  00000+0  33205-2 0  9994",
        "tle_line2": "2 34383  74.0207 275.4100 0002906  43.9576 136.6778 15.09948656892766"
      },
      "geometry": {
        "type": "Point",
        "coordinates": [
          -66.45192668502418,
          49.487164336350226
        ]
      }
    },
    {
      "type": "Feature",
      "properties": {
        "norad_id": 34387,
        "name": "COSMOS 2251 DEB",
        "group": "cosmos-2251-debris",
        "lat": 27.247426586589793,
        "lon": 2.037566494397005,
        "alt_km": 763.512821923613,
        "timestamp": "2025-12-24T05:51:20.003563+00:00",
        "meta_object_name": "COSMOS 2251 DEB",
        "meta_object_id": "1993-036QC",
        "meta_epoch": "2025-12-22T21:51:59.179968",
        "meta_mean_motion": 14.43841402,
        "meta_eccentricity": 0.00388908,
        "meta_inclination": 74.0387,
        "meta_ra_of_asc_node": 192.9899,
        "meta_arg_of_pericenter": 288.1124,
        "meta_mean_anomaly": 138.3937,
        "meta_ephemeris_type": 0,
        "meta_classification_type": "U",
        "meta_norad_cat_id": 34387,
        "meta_element_set_no": 999,
        "meta_rev_at_epoch": 88328,
        "meta_bstar": 0.00026862893,
        "meta_mean_motion_dot": 8.96e-06,
        "meta_mean_motion_ddot": 0,
        "tle_line1": "1 34387U 93036QC  25356.91110162  .00000896  00000+0  26863-3 0  9998",
        "tle_line2": "2 34387  74.0387 192.9899 0038890 288.1124 138.3937 14.43841402883281"
      },
      "geometry": {
        "type": "Point",
        "coordinates": [
          2.037566494397005,
          27.247426586589793
        ]
      }
    },
    {
      "type": "Feature",
      "properties": {
        "norad_id": 34388,
        "name": "COSMOS 2251 DEB",
        "group": "cosmos-2251-debris",
        "lat": 4.209767406836007,
        "lon": -157.2647753200219,
        "alt_km": 733.8078452820191,
        "timestamp": "2025-12-24T05:51:20.003634+00:00",
        "meta_object_name": "COSMOS 2251 DEB",
        "meta_object_id": "1993-036QD",
        "meta_epoch": "2025-12-23T19:56:43.026720",
        "meta_mean_motion": 14.49414126,
        "meta_eccentricity": 0.00137026,
        "meta_inclination": 74.0374,
        "meta_ra_of_asc_node": 202.3023,
        "meta_arg_of_pericenter": 249.8197,
        "meta_mean_anomaly": 120.7955,
        "meta_ephemeris_type": 0,
        "meta_classification_type": "U",
        "meta_norad_cat_id": 34388,
        "meta_element_set_no": 999,
        "meta_rev_at_epoch": 88316,
        "meta_bstar": 0.00053763604,
        "meta_mean_motion_dot": 2.032e-05,
        "meta_mean_motion_ddot": 0,
        "tle_line1": "1 34388U 93036QD  25357.83105355  .00002032  00000+0  53764-3 0  9993",
        "tle_line2": "2 34388  74.0374 202.3023 0013702 249.8197 120.7955 14.49414126883169"
      },
      "geometry": {
        "type": "Point",
        "coordinates": [
          -157.2647753200219,
          4.209767406836007
        ]
      }
    },
    {
      "type": "Feature",
      "properties": {
        "norad_id": 34389,
        "name": "COSMOS 2251 DEB",
        "group": "cosmos-2251-debris",
        "lat": 58.5050914627178,
        "lon": -103.62731385810709,
        "alt_km": 745.1788611760494,
        "timestamp": "2025-12-24T05:51:20.003647+00:00",
        "meta_object_name": "COSMOS 2251 DEB",
        "meta_object_id": "1993-036QE",
        "meta_epoch": "2025-12-23T23:25:09.493248",
        "meta_mean_motion": 14.41557498,
        "meta_eccentricity": 0.0029387,
        "meta_inclination": 74.0175,
        "meta_ra_of_asc_node": 228.9793,
        "meta_arg_of_pericenter": 338.8938,
        "meta_mean_anomaly": 132.1477,
        "meta_ephemeris_type": 0,
        "meta_classification_type": "U",
        "meta_norad_cat_id": 34389,
        "meta_element_set_no": 999,
        "meta_rev_at_epoch": 88174,
        "meta_bstar": 0.00029821514,
        "meta_mean_motion_dot": 9.48e-06,
        "meta_mean_motion_ddot": 0,
        "tle_line1": "1 34389U 93036QE  25357.97580432  .00000948  00000+0  29822-3 0  9994",
        "tle_line2": "2 34389  74.0175 228.9793 0029387 338.8938 132.1477 14.41557498881745"
      },
      "geometry": {
        "type": "Point",
        "coordinates": [
          -103.62731385810709,
          58.5050914627178
        ]
      }
    }
  ]
}